0 COSMOS 1223
1 12078U 80095A   13281.31499281  .00000114  00000-0  00000+0 0  2664
2 12078 070.7262 237.9000 4881066 085.9068 103.7320 02.00635234240584
0 COSMOS 1223
1 12078U 80095A   13286.78079856  .00000058  00000-0  00000+0 0  2670
2 12078 070.7244 237.6841 4879585 085.7300 091.6969 02.00633990240697
0 COSMOS 1223
1 12078U 80095A   13292.73600262  .00000055  00000-0  00000+0 0  2681
2 12078 070.7231 237.4502 4877972 085.5345 073.1292 02.00632791240816
0 COSMOS 1223
1 12078U 80095A   13294.76116068  .00000069  00000-0  00000+0 0  2698
2 12078 070.7227 237.3707 4877424 085.4671 095.8907 02.00632421240858
